[{"OBJECT_NAME":"CYGFM08","OBJECT_ID":"2016-078E","EPOCH":"2026-03-09T16:58:37.605216","MEAN_MOTION":15.54408853,"ECCENTRICITY":0.00081204,"INCLINATION":34.9429,"RA_OF_ASC_NODE":180.8023,"ARG_OF_PERICENTER":305.08,"MEAN_ANOMALY":54.9162,"EPHEMERIS_TYPE":0,"CLASSIFICATION_TYPE":"U","NORAD_CAT_ID":41888,"ELEMENT_SET_NO":999,"REV_AT_EPOCH":51345,"BSTAR":0.0013553103,"MEAN_MOTION_DOT":0.00093021,"MEAN_MOTION_DDOT":0},{"OBJECT_NAME":"JILIN-1 GAOFEN 03D09","OBJECT_ID":"2022-098B","EPOCH":"2026-03-09T22:57:40.546656","MEAN_MOTION":15.55250114,"ECCENTRICITY":0.00025765,"INCLINATION":97.5458,"RA_OF_ASC_NODE":192.2234,"ARG_OF_PERICENTER":20.0829,"MEAN_ANOMALY":340.0526,"EPHEMERIS_TYPE":0,"CLASSIFICATION_TYPE":"U","NORAD_CAT_ID":53445,"ELEMENT_SET_NO":999,"REV_AT_EPOCH":19915,"BSTAR":0.00083701558,"MEAN_MOTION_DOT":0.00056849,"MEAN_MOTION_DDOT":0}]
